[{"CCSDS_OMM_VERS":"2.0","COMMENT":"GENERATED VIA SPACE-TRACK.ORG API","CREATION_DATE":"2021-04-02T14:26:12","ORIGINATOR":"18 SPCS","OBJECT_NAME":"ONEWEB-0135","OBJECT_ID":"2020-100Z","CENTER_NAME":"EARTH","REF_FRAME":"TEME","TIME_SYSTEM":"UTC","MEAN_ELEMENT_THEORY":"SGP4","EPOCH":"2021-04-02T12:00:02.000160","MEAN_MOTION":"13.34718540","ECCENTRICITY":"0.00120700","INCLINATION":"87.9271","RA_OF_ASC_NODE":"8.7384","ARG_OF_PERICENTER":"268.6775","MEAN_ANOMALY":"139.6186","EPHEMERIS_TYPE":"0","CLASSIFICATION_TYPE":"U","NORAD_CAT_ID":"47281","ELEMENT_SET_NO":"999","REV_AT_EPOCH":"1526","BSTAR":"0.00000000000000","MEAN_MOTION_DOT":"0.00000013","MEAN_MOTION_DDOT":"0.0000000000000","SEMIMAJOR_AXIS":"7507.155","PERIOD":"107.888","APOAPSIS":"1138.081","PERIAPSIS":"1119.959","OBJECT_TYPE":"PAYLOAD","RCS_SIZE":"LARGE","COUNTRY_CODE":"UK","LAUNCH_DATE":"2020-12-18","SITE":"VOSTO","DECAY_DATE":null,"FILE":"3004252","GP_ID":"174694989","TLE_LINE0":"0 ONEWEB-0135","TLE_LINE1":"1 47281U 20100Z   21092.50002315  .00000013  00000-0  00000+0 0  9998","TLE_LINE2":"2 47281  87.9271   8.7384 0012070 268.6775 139.6186 13.34718540 15263"},{"CCSDS_OMM_VERS":"2.0","COMMENT":"GENERATED VIA SPACE-TRACK.ORG API","CREATION_DATE":"2021-04-02T18:10:20","ORIGINATOR":"18 SPCS","OBJECT_NAME":"ONEWEB-0135","OBJECT_ID":"2020-100Z","CENTER_NAME":"EARTH","REF_FRAME":"TEME","TIME_SYSTEM":"UTC","MEAN_ELEMENT_THEORY":"SGP4","EPOCH":"2021-04-02T14:00:01.999872","MEAN_MOTION":"13.34489963","ECCENTRICITY":"0.00119960","INCLINATION":"87.9283","RA_OF_ASC_NODE":"8.7215","ARG_OF_PERICENTER":"268.9661","MEAN_ANOMALY":"179.4841","EPHEMERIS_TYPE":"0","CLASSIFICATION_TYPE":"U","NORAD_CAT_ID":"47281","ELEMENT_SET_NO":"999","REV_AT_EPOCH":"171","BSTAR":"0.00000000000000","MEAN_MOTION_DOT":"0.00000013","MEAN_MOTION_DDOT":"0.0000000000000","SEMIMAJOR_AXIS":"7508.012","PERIOD":"107.906","APOAPSIS":"1138.884","PERIAPSIS":"1120.871","OBJECT_TYPE":"PAYLOAD","RCS_SIZE":"LARGE","COUNTRY_CODE":"UK","LAUNCH_DATE":"2020-12-18","SITE":"VOSTO","DECAY_DATE":null,"FILE":"3004616","GP_ID":"174726216","TLE_LINE0":"0 ONEWEB-0135","TLE_LINE1":"1 47281U 20100Z   21092.58335648  .00000013  00000-0  00000-0 0  9995","TLE_LINE2":"2 47281  87.9283   8.7215 0011996 268.9661 179.4841 13.34489963  1711"},{"CCSDS_OMM_VERS":"2.0","COMMENT":"GENERATED VIA SPACE-TRACK.ORG API","CREATION_DATE":"2021-04-02T22:26:12","ORIGINATOR":"18 SPCS","OBJECT_NAME":"ONEWEB-0135","OBJECT_ID":"2020-100Z","CENTER_NAME":"EARTH","REF_FRAME":"TEME","TIME_SYSTEM":"UTC","MEAN_ELEMENT_THEORY":"SGP4","EPOCH":"2021-04-02T22:00:01.999584","MEAN_MOTION":"13.33726870","ECCENTRICITY":"0.00119880","INCLINATION":"87.9334","RA_OF_ASC_NODE":"8.6530","ARG_OF_PERICENTER":"266.5055","MEAN_ANOMALY":"341.9118","EPHEMERIS_TYPE":"0","CLASSIFICATION_TYPE":"U","NORAD_CAT_ID":"47281","ELEMENT_SET_NO":"999","REV_AT_EPOCH":"1532","BSTAR":"0.00000000000000","MEAN_MOTION_DOT":"0.00000013","MEAN_MOTION_DDOT":"0.0000000000000","SEMIMAJOR_AXIS":"7510.876","PERIOD":"107.968","APOAPSIS":"1141.745","PERIAPSIS":"1123.737","OBJECT_TYPE":"PAYLOAD","RCS_SIZE":"LARGE","COUNTRY_CODE":"UK","LAUNCH_DATE":"2020-12-18","SITE":"VOSTO","DECAY_DATE":null,"FILE":"3004713","GP_ID":"174727999","TLE_LINE0":"0 ONEWEB-0135","TLE_LINE1":"1 47281U 20100Z   21092.91668981  .00000013  00000-0  00000+0 0  9990","TLE_LINE2":"2 47281  87.9334   8.6530 0011988 266.5055 341.9118 13.33726870 15324"},{"CCSDS_OMM_VERS":"2.0","COMMENT":"GENERATED VIA SPACE-TRACK.ORG API","CREATION_DATE":"2021-04-03T06:36:11","ORIGINATOR":"18 SPCS","OBJECT_NAME":"ONEWEB-0135","OBJECT_ID":"2020-100Z","CENTER_NAME":"EARTH","REF_FRAME":"TEME","TIME_SYSTEM":"UTC","MEAN_ELEMENT_THEORY":"SGP4","EPOCH":"2021-04-03T04:00:00.999936","MEAN_MOTION":"13.33054509","ECCENTRICITY":"0.00121910","INCLINATION":"87.9373","RA_OF_ASC_NODE":"8.6018","ARG_OF_PERICENTER":"266.7819","MEAN_ANOMALY":"100.9451","EPHEMERIS_TYPE":"0","CLASSIFICATION_TYPE":"U","NORAD_CAT_ID":"47281","ELEMENT_SET_NO":"999","REV_AT_EPOCH":"1535","BSTAR":"0.00000000000000","MEAN_MOTION_DOT":"0.00000013","MEAN_MOTION_DDOT":"0.0000000000000","SEMIMAJOR_AXIS":"7513.401","PERIOD":"108.023","APOAPSIS":"1144.426","PERIAPSIS":"1126.106","OBJECT_TYPE":"PAYLOAD","RCS_SIZE":"LARGE","COUNTRY_CODE":"UK","LAUNCH_DATE":"2020-12-18","SITE":"VOSTO","DECAY_DATE":null,"FILE":"3005100","GP_ID":"174758751","TLE_LINE0":"0 ONEWEB-0135","TLE_LINE1":"1 47281U 20100Z   21093.16667824  .00000013  00000-0  00000+0 0  9993","TLE_LINE2":"2 47281  87.9373   8.6018 0012191 266.7819 100.9451 13.33054509 15354"},{"CCSDS_OMM_VERS":"2.0","COMMENT":"GENERATED VIA SPACE-TRACK.ORG API","CREATION_DATE":"2021-04-03T14:26:12","ORIGINATOR":"18 SPCS","OBJECT_NAME":"ONEWEB-0135","OBJECT_ID":"2020-100Z","CENTER_NAME":"EARTH","REF_FRAME":"TEME","TIME_SYSTEM":"UTC","MEAN_ELEMENT_THEORY":"SGP4","EPOCH":"2021-04-03T12:00:02.000160","MEAN_MOTION":"13.32283153","ECCENTRICITY":"0.00117780","INCLINATION":"87.9424","RA_OF_ASC_NODE":"8.5352","ARG_OF_PERICENTER":"265.4297","MEAN_ANOMALY":"260.6242","EPHEMERIS_TYPE":"0","CLASSIFICATION_TYPE":"U","NORAD_CAT_ID":"47281","ELEMENT_SET_NO":"999","REV_AT_EPOCH":"1540","BSTAR":"0.00000000000000","MEAN_MOTION_DOT":"0.00000013","MEAN_MOTION_DDOT":"0.0000000000000","SEMIMAJOR_AXIS":"7516.301","PERIOD":"108.085","APOAPSIS":"1147.018","PERIAPSIS":"1129.313","OBJECT_TYPE":"PAYLOAD","RCS_SIZE":"LARGE","COUNTRY_CODE":"UK","LAUNCH_DATE":"2020-12-18","SITE":"VOSTO","DECAY_DATE":null,"FILE":"3005545","GP_ID":"174768977","TLE_LINE0":"0 ONEWEB-0135","TLE_LINE1":"1 47281U 20100Z   21093.50002315  .00000013  00000-0  00000+0 0  9999","TLE_LINE2":"2 47281  87.9424   8.5352 0011778 265.4297 260.6242 13.32283153 15403"},{"CCSDS_OMM_VERS":"2.0","COMMENT":"GENERATED VIA SPACE-TRACK.ORG API","CREATION_DATE":"2021-04-03T18:31:58","ORIGINATOR":"18 SPCS","OBJECT_NAME":"ONEWEB-0135","OBJECT_ID":"2020-100Z","CENTER_NAME":"EARTH","REF_FRAME":"TEME","TIME_SYSTEM":"UTC","MEAN_ELEMENT_THEORY":"SGP4","EPOCH":"2021-04-03T14:00:01.999872","MEAN_MOTION":"13.32035360","ECCENTRICITY":"0.00119130","INCLINATION":"87.9438","RA_OF_ASC_NODE":"8.5184","ARG_OF_PERICENTER":"264.7009","MEAN_ANOMALY":"300.7864","EPHEMERIS_TYPE":"0","CLASSIFICATION_TYPE":"U","NORAD_CAT_ID":"47281","ELEMENT_SET_NO":"999","REV_AT_EPOCH":"178","BSTAR":"0.00000000000000","MEAN_MOTION_DOT":"0.00000013","MEAN_MOTION_DDOT":"0.0000000000000","SEMIMAJOR_AXIS":"7517.233","PERIOD":"108.105","APOAPSIS":"1148.053","PERIAPSIS":"1130.143","OBJECT_TYPE":"PAYLOAD","RCS_SIZE":"LARGE","COUNTRY_CODE":"UK","LAUNCH_DATE":"2020-12-18","SITE":"VOSTO","DECAY_DATE":null,"FILE":"3005861","GP_ID":"174799422","TLE_LINE0":"0 ONEWEB-0135","TLE_LINE1":"1 47281U 20100Z   21093.58335648  .00000013  00000-0  00000-0 0  9996","TLE_LINE2":"2 47281  87.9438   8.5184 0011913 264.7009 300.7864 13.32035360  1782"},{"CCSDS_OMM_VERS":"2.0","COMMENT":"GENERATED VIA SPACE-TRACK.ORG API","CREATION_DATE":"2021-04-03T22:26:12","ORIGINATOR":"18 SPCS","OBJECT_NAME":"ONEWEB-0135","OBJECT_ID":"2020-100Z","CENTER_NAME":"EARTH","REF_FRAME":"TEME","TIME_SYSTEM":"UTC","MEAN_ELEMENT_THEORY":"SGP4","EPOCH":"2021-04-03T20:00:01.000224","MEAN_MOTION":"13.31500672","ECCENTRICITY":"0.00121580","INCLINATION":"87.9477","RA_OF_ASC_NODE":"8.4678","ARG_OF_PERICENTER":"263.7168","MEAN_ANOMALY":"59.5805","EPHEMERIS_TYPE":"0","CLASSIFICATION_TYPE":"U","NORAD_CAT_ID":"47281","ELEMENT_SET_NO":"999","REV_AT_EPOCH":"1544","BSTAR":"0.00000000000000","MEAN_MOTION_DOT":"0.00000013","MEAN_MOTION_DDOT":"0.0000000000000","SEMIMAJOR_AXIS":"7519.245","PERIOD":"108.149","APOAPSIS":"1150.252","PERIAPSIS":"1131.968","OBJECT_TYPE":"PAYLOAD","RCS_SIZE":"LARGE","COUNTRY_CODE":"UK","LAUNCH_DATE":"2020-12-18","SITE":"VOSTO","DECAY_DATE":null,"FILE":"3005960","GP_ID":"174801637","TLE_LINE0":"0 ONEWEB-0135","TLE_LINE1":"1 47281U 20100Z   21093.83334491  .00000013  00000-0  00000+0 0  9998","TLE_LINE2":"2 47281  87.9477   8.4678 0012158 263.7168  59.5805 13.31500672 15443"},{"CCSDS_OMM_VERS":"2.0","COMMENT":"GENERATED VIA SPACE-TRACK.ORG API","CREATION_DATE":"2021-04-04T02:16:35","ORIGINATOR":"18 SPCS","OBJECT_NAME":"ONEWEB-0135","OBJECT_ID":"2020-100Z","CENTER_NAME":"EARTH","REF_FRAME":"TEME","TIME_SYSTEM":"UTC","MEAN_ELEMENT_THEORY":"SGP4","EPOCH":"2021-04-03T22:00:00.999936","MEAN_MOTION":"13.31277092","ECCENTRICITY":"0.00122310","INCLINATION":"87.9489","RA_OF_ASC_NODE":"8.4507","ARG_OF_PERICENTER":"264.2742","MEAN_ANOMALY":"98.2088","EPHEMERIS_TYPE":"0","CLASSIFICATION_TYPE":"U","NORAD_CAT_ID":"47281","ELEMENT_SET_NO":"999","REV_AT_EPOCH":"183","BSTAR":"0.00000000000000","MEAN_MOTION_DOT":"0.00000013","MEAN_MOTION_DDOT":"0.0000000000000","SEMIMAJOR_AXIS":"7520.087","PERIOD":"108.167","APOAPSIS":"1151.150","PERIAPSIS":"1132.754","OBJECT_TYPE":"PAYLOAD","RCS_SIZE":"LARGE","COUNTRY_CODE":"UK","LAUNCH_DATE":"2020-12-18","SITE":"VOSTO","DECAY_DATE":null,"FILE":"3006281","GP_ID":"174831965","TLE_LINE0":"0 ONEWEB-0135","TLE_LINE1":"1 47281U 20100Z   21093.91667824  .00000013  00000-0  00000-0 0  9997","TLE_LINE2":"2 47281  87.9489   8.4507 0012231 264.2742  98.2088 13.31277092  1831"}]